P/2014 C1 (TOTAS),e,2.6812,167.8158,24.1672,3.044269,0.1855580,0.44683633,49.4875,01/05.0/2020,2000,g 15.5,4.0
# From MPC 91614
P/2014 E1 (Larson),e,15.9770,39.0449,185.9881,3.713010,0.1377574,0.42367476,282.5668,01/05.0/2020,2000,g 14.0,4.0
# From MPC 97495
C/2014 F2 (Tenagra),e,119.1101,267.4480,86.1483,153.2861,0.0005193,0.97185278,0.0000,01/04.0596/2015,2000,g  9.5,4.0
# From MPC 94280
C/2014 F3 (Sheppard-Trujillo),e,6.5152,327.0620,1.9274,16.27078,0.0150173,0.64923596,352.7061,01/05.0/2020,2000,g  6.0,4.0
# From MPC101095
C/2014 G3 (PANSTARRS),e,156.0837,4.7808,148.2347,54.07763,0.0024784,0.91291271,4.4526,01/05.0/2020,2000,g  9.0,4.0
# From MPC105541
C/2014 HU195 (Valdes-TOTAS),e,5.8174,115.7420,145.3573,22.11638,0.0094762,0.76791617,16.0246,01/05.0/2020,2000,g 10.5,4.0
# From MPC 98560
P/2014 L2 (NEOWISE),e,5.1940,149.3568,182.6243,6.304227,0.0622668,0.64769646,124.3923,01/05.0/2020,2000,g 12.0,4.0
# From MPC 90769
P/2014 L3 (Hill),e,6.2768,115.4736,178.5977,8.162490,0.0422639,0.77393622,85.1287,01/05.0/2020,2000,g 16.0,4.0
# From MPC103844
C/2014 M1 (PANSTARRS),e,160.2184,234.7714,337.1131,7693,0.0000015,0.99927262,0.0000,08/27.4861/2015,2000,g  9.0,4.0
# From MPC 91614
P/2014 M4 (PANSTARRS),e,3.3344,263.2864,147.9846,5.877987,0.0691610,0.59341417,127.0756,01/05.0/2020,2000,g 15.0,4.0
# From MPC103844
P/2014 MG4 (Spacewatch-PANSTARRS),e,9.3700,311.7402,299.0417,5.011654,0.0878481,0.26005846,210.1786,01/05.0/2020,2000,g  9.5,4.0
# From MPC103844
C/2014 N3 (NEOWISE),e,61.6573,19.8565,353.4013,1589,0.0000156,0.99756424,0.0000,03/12.6293/2015,2000,g  7.0,4.0
# From MPC 98560
P/2014 O3 (PANSTARRS),e,7.8092,87.6392,204.4763,7.557591,0.0474383,0.38641620,98.9598,01/05.0/2020,2000,g 10.5,4.0
# From MPC118840
C/2014 OE4 (PANSTARRS),h,12/12.3183/2016,81.3394,240.3973,65.8507,1.002379,6.247320,2000,11.0,2.0
# From MPC100578
C/2014 Q1 (PANSTARRS),e,43.0672,9.0351,119.9635,991.4982,0.0000316,0.99967887,0.0000,07/05.3416/2015,2000,g  8.0,4.0
# From MPC115880
C/2014 Q2 (Lovejoy),e,80.1906,95.0451,12.3507,418.7573,0.0001150,0.99691537,0.0000,01/28.3488/2015,2000,g  2.7,10.0
# From MPC118840
C/2014 Q6 (PANSTARRS),e,49.8149,326.5289,2.5401,7080,0.0000017,0.99940423,0.0000,01/06.6900/2015,2000,g  9.5,4.0
# From MPC115880
C/2014 R3 (PANSTARRS),e,90.8954,334.0918,113.4632,7105,0.0000016,0.99897587,0.0000,08/08.7021/2016,2000,g  6.5,4.0
# From MPC 91615
P/2014 R5 (Lemmon-PANSTARRS),e,1.0882,126.5492,213.6970,4.057528,0.1205901,0.41318079,244.5565,01/05.0/2020,2000,g 15.0,4.0
# From MPC104790
C/2014 S2 (PANSTARRS),e,64.4618,8.0987,87.3665,171.8411,0.0004375,0.98787820,0.0000,12/09.0548/2015,2000,g 10.0,4.0
# From MPC 91616
P/2014 U4 (PANSTARRS),e,6.4306,11.9760,347.7700,3.506060,0.1501326,0.46555568,299.1058,01/05.0/2020,2000,g 18.0,4.0
# From MPC 95211
P/2014 V1 (PANSTARRS),e,22.5011,166.2108,177.5483,5.482921,0.0767690,0.53362804,138.9066,01/05.0/2020,2000,g 14.0,4.0
# From MPC 93586
P/2014 W1 (PANSTARRS),e,8.8404,246.2444,152.3500,4.459577,0.1046559,0.38872263,208.6383,01/05.0/2020,2000,g 15.5,4.0
# From MPC110493
C/2014 W2 (PANSTARRS),e,82.0309,69.9637,84.9389,613.3450,0.0000649,0.99564372,0.0000,03/08.7278/2016,2000,g  7.5,4.0
# From MPC105542
P/2014 W4 (PANSTARRS),e,15.2676,33.3483,67.9757,6.603845,0.0580776,0.35223390,85.1103,01/05.0/2020,2000,g 11.0,4.0
# From MPC 95211
C/2014 W6 (Catalina),h,03/18.3022/2015,53.4939,338.1971,209.9500,1.001314,3.096948,2000,10.5,4.0
# From MPC 92982
C/2014 W7 (Christensen),e,98.1289,151.2673,33.2545,11.39408,0.0256263,0.86939276,46.9133,01/05.0/2020,2000,g 16.0,4.0
# From MPC 91616
C/2014 W8 (PANSTARRS),e,41.9582,224.8337,227.9994,170.8834,0.0004412,0.97061958,0.0000,09/08.9640/2015,2000,g 11.0,4.0
# From MPC 94672
C/2014 W9 (PANSTARRS),e,10.6166,21.3507,167.8971,11.20939,0.0262622,0.85739091,46.8918,01/05.0/2020,2000,g 16.0,4.0
# From MPC115880
C/2014 W10 (PANSTARRS),e,82.8645,43.1351,43.6747,868.6709,0.0000385,0.99127934,0.0000,03/04.9098/2016,2000,g  8.0,4.0
# From MPC107047
C/2014 W11 (PANSTARRS),e,13.2690,295.6341,225.9301,9.822820,0.0320147,0.65521603,52.7505,01/05.0/2020,2000,g 10.0,4.0
# From MPC 93587
P/2014 W12 (Gibbs),e,8.5141,299.2887,36.9225,3.517317,0.1494124,0.52390781,280.5987,01/05.0/2020,2000,g 15.0,4.0
# From MPC 94281
P/2014 X1 (Elenin),e,25.9998,61.5022,34.0313,6.212661,0.0636484,0.70862281,116.3671,01/05.0/2020,2000,g 15.0,4.0
# From MPC 96866
C/2014 XB8 (PANSTARRS),e,149.7900,37.4890,351.3006,633.8117,0.0000618,0.99526006,0.0000,04/04.1227/2015,2000,g 13.5,4.0
# From MPC100579
C/2014 Y1 (PANSTARRS),h,01/16.9146/2016,14.9185,19.5207,182.3441,1.001700,2.250326,2000,9.5,4.0
# From MPC 96279
C/2015 A1 (PANSTARRS),e,80.2137,341.0350,244.9316,20.24239,0.0108221,0.90135042,19.0359,01/05.0/2020,2000,g 14.5,4.0
# From MPC 93587
C/2015 A2 (PANSTARRS),p,08/01.8353/2015,109.1696,208.8369,5.341055,258.5042,2000,10.5,4.0
# From MPC 92275
P/2015 A3 (PANSTARRS),e,172.5279,277.1584,249.2059,7.807837,0.0451760,0.85184628,80.4433,01/05.0/2020,2000,g 20.0,4.0
# From MPC 99270
P/2015 B1 (PANSTARRS),e,18.0224,353.0899,188.7155,9.504722,0.0336353,0.36985205,52.8239,01/05.0/2020,2000,g  8.5,4.0
# From MPC108592
C/2015 B2 (PANSTARRS),h,05/06.1762/2016,105.0202,341.8750,284.7203,1.000281,3.368325,2000,9.5,4.0
# From MPC109141
P/2015 B4 (Lemmon-PANSTARRS),e,1.7605,266.0264,227.5263,8.540293,0.0394907,0.56113798,70.7977,01/05.0/2020,2000,g 11.0,4.0
# From MPC101096
P/2015 C1 (TOTAS-Gibbs),e,13.8838,348.8364,178.4059,6.590283,0.0582570,0.56038325,99.7123,01/05.0/2020,2000,g 12.5,4.0
# From MPC 95211
C/2015 C2 (SWAN),e,94.5308,49.5130,333.9618,346.8637,0.0001526,0.99796520,0.0000,03/03.9625/2015,2000,g 14.0,4.0
# From MPC115880
C/2015 D3 (PANSTARRS),h,05/03.1637/2016,128.5418,157.0331,3.0001,1.003849,8.149660,2000,5.5,4.0
# From MPC109141
P/2015 D5 (Kowalski),e,20.4934,74.0609,40.0024,8.980983,0.0366200,0.48910801,77.0219,01/05.0/2020,2000,g  9.0,4.0
# From MPC 96866
P/2015 D6 (Lemmon-PANSTARRS),e,20.2111,46.1386,125.2882,7.154472,0.0515036,0.36267612,84.5910,01/05.0/2020,2000,g 10.5,4.0
# From MPC112390
C/2015 ER61 (PANSTARRS),e,6.3466,235.2058,68.2181,453.9434,0.0001019,0.99770534,0.0000,05/10.2515/2017,2000,g 11.0,2.0
# From MPEC 2018-BF5
C/2015 E61-B (PANSTARRS),e,6.3482,235.2409,68.3073,1115,0.0000265,0.99906449,0.0000,05/10.2291/2017,2000,g 13.5,2.0
# From MPC109142
P/2015 F1 (PANSTARRS),e,2.8026,40.4088,187.3992,3.524042,0.1489850,0.27829325,261.4800,01/05.0/2020,2000,g 12.5,4.0
# From MPC 98561
C/2015 F2 (Polonia),e,28.7293,262.4467,352.2231,39.13650,0.0040256,0.96897673,6.8903,01/05.0/2020,2000,g 16.5,4.0
# From MPC 96279
C/2015 F3 (SWAN),e,73.5352,31.7090,57.4512,180.1205,0.0004077,0.99536659,0.0000,03/07.5259/2015,2000,g 14.5,4.0
# From MPC115880
C/2015 F4 (Jacques),e,48.8044,285.9194,36.3169,116.9032,0.0007798,0.98597237,0.0000,08/11.7499/2015,2000,g 11.0,4.0
# From MPC 95212
C/2015 F5 (SWAN-Xingming),e,149.3759,287.7500,13.4758,15.56876,0.0160444,0.97757842,0.0000,03/28.3036/2015,2000,g 15.5,4.0
# From MPC102096
C/2015 GX (PANSTARRS),e,90.2653,235.4992,108.8216,16.16654,0.0151628,0.87860229,24.1314,01/05.0/2020,2000,g 14.0,4.0
# From MPC109142
C/2015 G2 (MASTER),h,05/24.6667/2015,147.6609,110.2438,257.6514,1.000607,0.779757,2000,11.0,4.0
# From MPC 98561
C/2015 H1 (Bressi),e,140.6673,325.8526,21.9323,32.03210,0.0054366,0.93950512,9.4861,01/05.0/2020,2000,g 13.5,4.0
# From MPC117068
C/2015 H2 (PANSTARRS),h,09/14.1702/2016,33.6728,350.6922,288.0199,1.005444,4.972409,2000,7.5,4.0
# From MPC100280
P/2015 HG16 (PANSTARRS),e,18.8594,59.2317,47.2334,4.754413,0.0950733,0.34850104,192.0819,01/05.0/2020,2000,g 12.5,4.0
# From MPC101096
C/2015 J2 (PANSTARRS),e,17.2752,56.7486,203.8859,292.9935,0.0001965,0.98521927,0.0000,09/09.9985/2015,2000,g 10.0,4.0
# From MPC 95733
P/2015 J3 (NEOWISE),e,8.1307,111.3516,129.4278,3.349635,0.1607711,0.55452468,283.9425,01/05.0/2020,2000,g 16.5,4.0
# From MPC 95733
C/2015 K2 (PANSTARRS),e,29.0882,223.7147,15.9348,304.9900,0.0001850,0.99520543,0.0000,06/08.9788/2015,2000,g 20.0,4.0
# From MPC 95733
C/2015 K4 (PANSTARRS),h,05/01.8492/2015,80.2666,250.7268,357.7227,1.000885,2.016992,2000,15.0,4.0
# From MPC 95213
P/2015 K5 (PANSTARRS),e,39.9477,134.1950,106.2641,6.716537,0.0566221,0.55420787,94.7487,01/05.0/2020,2000,g 13.5,4.0
# From MPC111767
C/2015 LC2 (PANSTARRS),h,05/02.2715/2015,93.7205,223.5954,342.0232,1.000390,5.905130,2000,8.0,4.0
# From MPC 95734
C/2015 M1 (PANSTARRS),e,57.3304,100.1739,164.1691,446.7321,0.0001044,0.99530355,0.0000,05/15.9067/2015,2000,g 16.5,4.0
# From MPC107684
P/2015 M2 (PANSTARRS),e,3.9736,86.5781,225.1466,7.221795,0.0507851,0.18102740,80.3690,01/05.0/2020,2000,g  8.5,4.0
# From MPC115881
C/2015 M3 (PANSTARRS),e,65.8808,143.0188,123.8641,138.5001,0.0006047,0.97431696,0.0000,08/26.3049/2015,2000,g 12.0,4.0
# From MPC112390
C/2015 O1 (PANSTARRS),h,02/19.3014/2018,127.2219,299.8519,89.6280,1.000555,3.730322,2000,6.5,4.0
# From MPC 96280
C/2015 P3 (SWAN),e,58.2016,87.9855,133.1007,265.4931,0.0002278,0.99728319,0.0000,07/27.5085/2015,2000,g 15.5,4.0
# From MPC 99819
P/2015 P4 (PANSTARRS),e,8.7178,104.7664,280.6090,6.052802,0.0661865,0.58395504,95.7814,01/05.0/2020,2000,g 14.0,4.0
# From MPC102952
P/2015 PD229 (Cameron-ISON),e,2.0258,342.6571,352.3331,7.178732,0.0512428,0.32786147,82.2357,01/05.0/2020,2000,g 11.5,2.0
# From MPC 99819
P/2015 Q1 (Scotti),e,22.4116,203.0613,199.8822,3.468739,0.1525621,0.47898325,242.4362,01/05.0/2020,2000,g 14.0,4.0
# From MPC 96867
P/2015 Q2 (Pimentel),e,146.4663,228.3722,244.4037,7.344275,0.0495200,0.75134819,78.3135,01/05.0/2020,2000,g 15.5,4.0
# From MPC 98562
P/2015 R1 (PANSTARRS),e,22.6733,48.4858,300.3792,5.881717,0.0690952,0.63354187,114.2373,01/05.0/2020,2000,g 14.0,4.0
# From MPC 95734
P/2015 R2 (PANSTARRS),e,15.4708,168.6156,149.6975,4.489852,0.1035991,0.45247058,172.9516,01/05.0/2020,2000,g 14.5,4.0
# From MPC117068
C/2015 T2 (PANSTARRS),e,124.5485,51.0500,30.6744,2917,0.0000063,0.99762264,0.0000,05/19.0063/2017,2000,g  8.0,4.0
# From MPC 96280
